NORAD_CAT_ID,OBJECT_NAME,OBJECT_TYPE,EPOCH,MEAN_MOTION,ECCENTRICITY,INCLINATION,RA_OF_ASC_NODE,ARG_OF_PERICENTER,MEAN_ANOMALY,BSTAR,MEAN_MOTION_DOT,MEAN_MOTION_DDOT,TLE_LINE0,TLE_LINE1,TLE_LINE2,SEMIMAJOR_AXIS,PERIOD,APOGEE,PERIGEE,DECAYED
53018.0,STARLINK-4279,PAYLOAD,2024-05-10 11:45:30,15.08838141,0.0001245,53.2171,204.0448,88.7914,271.3221,1.741e-05,-1.1e-07,0.0,0 STARLINK-4279,1 53018U 22076AJ  24131.48993821 -.00000011  00000-0  17410-4 0  9999,2 53018  53.2171 204.0448 0001245  88.7914 271.3221 15.08838141102571,6917.886,95.438,540.612,538.89,0.0
53018.0,STARLINK-4279,PAYLOAD,2024-05-10 14:56:17,15.08836974,0.0001246,53.2174,203.4509,88.344,271.7695,-2.3172e-06,-3.25e-06,0.0,0 STARLINK-4279,1 53018U 22076AJ  24131.62241926 -.00000325  00000-0 -23172-5 0  9999,2 53018  53.2174 203.4509 0001246  88.3440 271.7695 15.08836974102128,6917.89,95.438,540.617,538.893,0.0
53018.0,STARLINK-4279,PAYLOAD,2024-05-11 05:14:44,15.08853843,0.0001172,53.2175,200.7767,96.2947,263.8178,0.00023387,3.438e-05,0.0,0 STARLINK-4279,1 53018U 22076AJ  24132.21857028  .00003438  00000-0  23387-3 0  9993,2 53018  53.2175 200.7767 0001172  96.2947 263.8178 15.08853843102686,6917.838,95.437,540.514,538.892,0.0
53018.0,STARLINK-4279,PAYLOAD,2024-05-11 21:08:38,15.08792274,0.0003102,53.2166,197.8034,100.4704,259.6638,-0.00095226,-0.00015393,0.0,0 STARLINK-4279,1 53018U 22076AJ  24132.88099603 -.00015393  00000-0 -95226-3 0  9999,2 53018  53.2166 197.8034 0003102 100.4704 259.6638 15.08792274102788,6918.026,95.441,542.037,537.745,0.0
53018.0,STARLINK-4279,PAYLOAD,2024-05-12 05:05:35,15.08748049,0.000175,53.2169,196.3168,78.7089,281.41,-0.0017207,-0.000275,0.0,0 STARLINK-4279,1 53018U 22076AJ  24133.21221958 -.00027500  00000-0 -17207-2 0  9992,2 53018  53.2169 196.3168 0001750  78.7089 281.4100 15.08748049102837,6918.161,95.443,541.237,538.816,0.0
53018.0,STARLINK-4279,PAYLOAD,2024-05-12 11:27:08,15.08763741,0.000166,53.2157,195.1312,105.7221,254.3955,-0.00029718,-5.005e-05,0.0,0 STARLINK-4279,1 53018U 22076AJ  24133.47718430 -.00005005  00000-0 -29718-3 0  9993,2 53018  53.2157 195.1312 0001660 105.7221 254.3955 15.08763741102878,6918.113,95.442,541.127,538.83,0.0
53018.0,STARLINK-4279,PAYLOAD,2024-05-12 20:59:27,15.08825907,0.000141,53.2161,193.3443,79.7237,280.3914,0.0028474,0.00045302,0.0,0 STARLINK-4279,1 53018U 22076AJ  24133.87462663  .00045302  00000-0  28474-2 0  9990,2 53018  53.2161 193.3443 0001410  79.7237 280.3914 15.08825907102932,6917.923,95.438,540.764,538.813,0.0
53018.0,STARLINK-4279,PAYLOAD,2024-05-13 12:53:17,15.08907347,0.0001841,53.2146,190.3682,74.9741,285.1454,0.0012775,0.00020139,0.0,0 STARLINK-4279,1 53018U 22076AJ  24134.53700585  .00020139  00000-0  12775-2 0  9990,2 53018  53.2146 190.3682 0001841  74.9741 285.1454 15.08907347102562,6917.675,95.433,540.813,538.266,0.0
53018.0,STARLINK-4279,PAYLOAD,2024-05-13 20:50:12,15.08897283,0.0002091,53.2153,188.8826,76.1473,283.9752,0.00034046,5.143e-05,0.0,0 STARLINK-4279,1 53018U 22076AJ  24134.86819688  .00005143  00000-0  34046-3 0  9995,2 53018  53.2153 188.8826 0002091  76.1473 283.9752 15.08897283102616,6917.705,95.434,541.017,538.124,0.0
53018.0,STARLINK-4279,PAYLOAD,2024-05-14 03:11:44,15.08894757,0.0002434,53.2145,187.6947,76.6567,283.4696,0.00078541,0.00012253,0.0,0 STARLINK-4279,1 53018U 22076AJ  24135.13315085  .00012253  00000-0  78541-3 0  9996,2 53018  53.2145 187.6947 0002434  76.6567 283.4696 15.08894757103120,6917.713,95.434,541.262,537.894,0.0
53018.0,STARLINK-4279,PAYLOAD,2024-05-14 11:08:39,15.08886172,0.0001919,53.2157,186.2065,77.4908,282.6299,0.00021669,3.166e-05,0.0,0 STARLINK-4279,1 53018U 22076AJ  24135.46434157  .00003166  00000-0  21669-3 0  9996,2 53018  53.2157 186.2065 0001919  77.4908 282.6299 15.08886172103171,6917.739,95.435,540.932,538.277,0.0
53018.0,STARLINK-4279,PAYLOAD,2024-05-14 20:40:57,15.08888275,0.0001914,53.2156,184.4227,76.9272,283.1934,0.00065893,0.00010228,0.0,0 STARLINK-4279,1 53018U 22076AJ  24135.86177157  .00010228  00000-0  65893-3 0  9998,2 53018  53.2156 184.4227 0001914  76.9272 283.1934 15.08888275102765,6917.733,95.435,540.922,538.274,0.0
53018.0,STARLINK-4279,PAYLOAD,2024-05-15 12:34:48,15.08851204,0.0001841,53.216,181.4499,78.7905,281.3294,-0.00041493,-6.888e-05,0.0,0 STARLINK-4279,1 53018U 22076AJ  24136.52416819 -.00006888  00000-0 -41493-3 0  9992,2 53018  53.2160 181.4499 0001841  78.7905 281.3294 15.08851204103335,6917.846,95.437,540.985,538.438,0.0
53018.0,STARLINK-4279,PAYLOAD,2024-05-15 20:31:43,15.08844071,0.0001834,53.2157,179.9626,80.3497,279.7702,-0.0003575,-5.974e-05,0.0,0 STARLINK-4279,1 53018U 22076AJ  24136.85536884 -.00005974  00000-0 -35750-3 0  9997,2 53018  53.2157 179.9626 0001834  80.3497 279.7702 15.08844071102914,6917.868,95.437,541.002,538.464,0.0
53018.0,STARLINK-4279,PAYLOAD,2024-05-16 09:14:48,15.08855594,0.0001763,53.2159,177.5832,82.9159,277.2033,0.0001587,2.24e-05,0.0,0 STARLINK-4279,1 53018U 22076AJ  24137.38528466  .00002240  00000-0  15870-3 0  9995,2 53018  53.2159 177.5832 0001763  82.9159 277.2033 15.08855594102993,6917.833,95.437,540.917,538.478,0.0
53018.0,STARLINK-4279,PAYLOAD,2024-05-17 12:16:22,15.08842522,0.000153,53.2163,172.527,86.179,273.9377,0.00036157,5.471e-05,0.0,0 STARLINK-4279,1 53018U 22076AJ  24138.51137298  .00005471  00000-0  36157-3 0  9990,2 53018  53.2163 172.5270 0001530  86.1790 273.9377 15.08842522103631,6917.873,95.437,540.796,538.679,0.0
53018.0,STARLINK-4279,PAYLOAD,2024-05-18 02:34:51,15.08830214,0.0001531,53.2162,169.8497,85.7522,274.3645,0.00012402,1.686e-05,0.0,0 STARLINK-4279,1 53018U 22076AJ  24139.10753909  .00001686  00000-0  12402-3 0  9990,2 53018  53.2162 169.8497 0001531  85.7522 274.3645 15.08830214103727,6917.91,95.438,540.834,538.716,0.0
53018.0,STARLINK-4279,PAYLOAD,2024-05-18 08:56:23,15.08834152,0.0001754,53.2163,168.6596,96.2216,263.8976,7.3168e-05,8.76e-06,0.0,0 STARLINK-4279,1 53018U 22076AJ  24139.37249905  .00000876  00000-0  73168-4 0  9992,2 53018  53.2163 168.6596 0001754  96.2216 263.8976 15.08834152103296,6917.898,95.438,540.977,538.55,0.0
53018.0,STARLINK-4279,PAYLOAD,2024-05-18 18:28:42,15.08837953,0.0001607,53.2157,166.8768,87.1048,273.0128,5.7103e-05,6.21e-06,0.0,0 STARLINK-4279,1 53018U 22076AJ  24139.76993845  .00000621  00000-0  57103-4 0  9993,2 53018  53.2157 166.8768 0001607  87.1048 273.0128 15.08837953103350,6917.887,95.438,540.863,538.64,0.0
53018.0,STARLINK-4279,PAYLOAD,2024-05-19 02:25:39,15.08824147,0.0001754,53.2179,165.3957,101.2686,258.8503,0.000174,2.481e-05,0.0,0 STARLINK-4279,1 53018U 22076AJ  24140.10114971  .00002481  00000-0  17400-3 0  9999,2 53018  53.2179 165.3957 0001754 101.2686 258.8503 15.08824147103873,6917.929,95.439,541.007,538.58,0.0
53018.0,STARLINK-4279,PAYLOAD,2024-05-19 08:47:12,15.08824572,0.0001718,53.2175,164.2046,97.3362,262.7825,-4.5407e-05,-1.01e-05,0.0,0 STARLINK-4279,1 53018U 22076AJ  24140.36611161 -.00001010  00000-0 -45407-4 0  9998,2 53018  53.2175 164.2046 0001718  97.3362 262.7825 15.08824572103448,6917.928,95.439,540.981,538.604,0.0
53018.0,STARLINK-4279,PAYLOAD,2024-05-20 05:27:12,15.08840695,0.0001507,53.2165,160.3366,93.4974,266.6191,0.00016312,2.309e-05,0.0,0 STARLINK-4279,1 53018U 22076AJ  24141.22722802  .00002309  00000-0  16312-3 0  9991,2 53018  53.2165 160.3366 0001507  93.4974 266.6191 15.08840695104041,6917.878,95.438,540.786,538.701,0.0
53018.0,STARLINK-4279,PAYLOAD,2024-05-20 11:48:45,15.08845678,0.0001667,53.2169,159.1479,93.3921,266.7262,0.00036369,5.506e-05,0.0,0 STARLINK-4279,1 53018U 22076AJ  24141.49218836  .00005506  00000-0  36369-3 0  9993,2 53018  53.2169 159.1479 0001667  93.3921 266.7262 15.08845678103612,6917.863,95.437,540.881,538.575,0.0
53018.0,STARLINK-4279,PAYLOAD,2024-05-21 08:28:45,15.08841439,0.0001468,53.2154,155.28,93.6703,266.4457,0.00016463,2.333e-05,0.0,0 STARLINK-4279,1 53018U 22076AJ  24142.35330958  .00002333  00000-0  16463-3 0  9997,2 53018  53.2154 155.2800 0001468  93.6703 266.4457 15.08841439104212,6917.876,95.437,540.757,538.725,0.0
53018.0,STARLINK-4279,PAYLOAD,2024-05-22 08:19:33,15.08842811,0.0001592,53.2161,150.8191,83.2041,276.9132,4.6387e-05,4.5e-06,0.0,0 STARLINK-4279,1 53018U 22076AJ  24143.34690999  .00000450  00000-0  46387-4 0  9998,2 53018  53.2161 150.8191 0001592  83.2041 276.9132 15.08842811103896,6917.872,95.437,540.838,538.635,0.0
53018.0,STARLINK-4279,PAYLOAD,2024-05-23 09:45:43,15.08844276,0.00016,53.2174,146.0625,79.1297,280.9876,0.00012672,1.73e-05,0.0,0 STARLINK-4279,1 53018U 22076AJ  24144.40674877  .00001730  00000-0  12672-3 0  9994,2 53018  53.2174 146.0625 0001600  79.1297 280.9876 15.08844276104524,6917.867,95.437,540.839,538.625,0.0
53018.0,STARLINK-4279,PAYLOAD,2024-05-24 09:36:29,15.08846029,0.0001479,53.2169,141.6013,90.0081,270.108,0.00010068,1.315e-05,0.0,0 STARLINK-4279,1 53018U 22076AJ  24145.40034501  .00001315  00000-0  10068-3 0  9995,2 53018  53.2169 141.6013 0001479  90.0081 270.1080 15.08846029104208,6917.862,95.437,540.75,538.704,0.0
53018.0,STARLINK-4279,PAYLOAD,2024-05-25 06:16:31,15.08838229,0.0001348,53.2166,137.734,96.7031,263.4114,-7.8129e-06,-4.12e-06,0.0,0 STARLINK-4279,1 53018U 22076AJ  24146.26147088 -.00000412  00000-0 -78129-5 0  9998,2 53018  53.2166 137.7340 0001348  96.7031 263.4114 15.08838229104809,6917.886,95.438,540.683,538.818,0.0
53018.0,STARLINK-4279,PAYLOAD,2024-05-26 06:07:18,15.08839183,0.0001343,53.2169,133.2757,102.1346,257.9796,-2.1999e-05,-6.38e-06,0.0,0 STARLINK-4279,1 53018U 22076AJ  24147.25507355 -.00000638  00000-0 -21999-4 0  9997,2 53018  53.2169 133.2757 0001343 102.1346 257.9796 15.08839183104489,6917.883,95.438,540.677,538.819,0.0
53018.0,STARLINK-4279,PAYLOAD,2024-05-26 22:01:10,15.08832322,0.0001302,53.217,130.3031,96.2227,263.8913,6.7683e-05,7.89e-06,0.0,0 STARLINK-4279,1 53018U 22076AJ  24147.91747769  .00000789  00000-0  67683-4 0  9990,2 53018  53.2170 130.3031 0001302  96.2227 263.8913 15.08832322104586,6917.904,95.438,540.67,538.868,0.0
